STARLINK-36739          
1 67802U 26032F   26065.83334490  .00065104  00000+0  43465-3 0  9999
2 67802  97.2851 252.2307 0001719  95.5783  28.4002 15.75156470  4329
STARLINK-36768          
1 67803U 26032G   26065.56973668  .00131267  00000+0  86574-3 0  9998
2 67803  97.2847 251.9237 0001442  84.8550 275.2880 15.75236352  4299
STARLINK-36792          
1 67804U 26032H   26065.57220883  .00168573  00000+0  11067-2 0  9998
2 67804  97.2848 251.9202 0001464  38.7502 321.3868 15.75236636  4296
STARLINK-36782          
1 67805U 26032J   26065.61284386 -.00401373  00000+0 -22258-2 0  9996
2 67805  97.2831 252.0180 0001411  93.0699 267.0731 15.80485206  4301
STARLINK-36389          
1 67806U 26032K   26065.83334490  .00244223  00000+0  15990-2 0  9995
2 67806  97.2843 252.2203 0001021  87.4857  16.3838 15.75085799  4325
STARLINK-36382          
1 67807U 26032L   26065.83334490  .00082123  00000+0  54728-3 0  9998
2 67807  97.2846 252.2261 0001494  76.8536  39.1344 15.75143059  4265
STARLINK-36811          
1 67808U 26032M   26065.83334490  .00052679  00000+0  35235-3 0  9994
2 67808  97.2850 252.2496 0001630  89.0941  82.8757 15.75158110  4323
STARLINK-36795          
1 67809U 26032N   26065.75643875  .00253202  00000+0  16435-2 0  9991
2 67809  97.2844 252.1282 0001364  77.8109 282.3309 15.75261439  4323
STARLINK-36807          
1 67810U 26032P   26065.83334490  .00084933  00000+0  56603-3 0  9997
2 67810  97.2849 252.2466 0001673  77.9023  88.0918 15.75133017  4321
STARLINK-36733          
1 67811U 26032Q   26065.60619561  .00158903  00000+0  81354-3 0  9998
2 67811  97.2822 252.0256 0001377  95.1087 265.0339 15.80863460  4301
STARLINK-36377          
1 67812U 26032R   26065.79316671 -.00546670  00000+0 -32148-2 0  9995
2 67812  97.2826 252.2306 0000272  81.5361 278.5937 15.79566509  4339
STARLINK-36732          
1 67813U 26032S   26065.83334490  .00082806  00000+0  55142-3 0  9994
2 67813  97.2844 252.2612 0000990  59.9020 146.0217 15.75158552  4328
