CCSDS_OMM_VERS = 2.0
CREATION_DATE  = 
ORIGINATOR     = 

OBJECT_NAME    = STARLINK-36739
OBJECT_ID      = 2026-032F
CENTER_NAME    = EARTH
REF_FRAME      = TEME
TIME_SYSTEM    = UTC
MEAN_ELEMENT_THEORY = SGP/SGP4

EPOCH          = 2026-03-06T20:00:00.999360
MEAN_MOTION    = 15.75156470
ECCENTRICITY   = .0001719
INCLINATION    = 97.2851
RA_OF_ASC_NODE = 252.2307
ARG_OF_PERICENTER = 95.5783
MEAN_ANOMALY   = 28.4002

EPHEMERIS_TYPE = 0
CLASSIFICATION_TYPE = U
NORAD_CAT_ID   = 67802
ELEMENT_SET_NO = 999
REV_AT_EPOCH   = 432
BSTAR          = .43465E-3
MEAN_MOTION_DOT = .65104E-3
MEAN_MOTION_DDOT = 0

CCSDS_OMM_VERS = 2.0
CREATION_DATE  = 
ORIGINATOR     = 

OBJECT_NAME    = STARLINK-36768
OBJECT_ID      = 2026-032G
CENTER_NAME    = EARTH
REF_FRAME      = TEME
TIME_SYSTEM    = UTC
MEAN_ELEMENT_THEORY = SGP/SGP4

EPOCH          = 2026-03-06T13:40:25.249152
MEAN_MOTION    = 15.75236352
ECCENTRICITY   = .00014428
INCLINATION    = 97.2847
RA_OF_ASC_NODE = 251.9237
ARG_OF_PERICENTER = 84.8550
MEAN_ANOMALY   = 275.2880

EPHEMERIS_TYPE = 0
CLASSIFICATION_TYPE = U
NORAD_CAT_ID   = 67803
ELEMENT_SET_NO = 999
REV_AT_EPOCH   = 429
BSTAR          = .86574039E-3
MEAN_MOTION_DOT = .131267E-2
MEAN_MOTION_DDOT = 0

CCSDS_OMM_VERS = 2.0
CREATION_DATE  = 
ORIGINATOR     = 

OBJECT_NAME    = STARLINK-36792
OBJECT_ID      = 2026-032H
CENTER_NAME    = EARTH
REF_FRAME      = TEME
TIME_SYSTEM    = UTC
MEAN_ELEMENT_THEORY = SGP/SGP4

EPOCH          = 2026-03-06T13:43:58.842912
MEAN_MOTION    = 15.75236636
ECCENTRICITY   = .00014649
INCLINATION    = 97.2848
RA_OF_ASC_NODE = 251.9202
ARG_OF_PERICENTER = 38.7502
MEAN_ANOMALY   = 321.3868

EPHEMERIS_TYPE = 0
CLASSIFICATION_TYPE = U
NORAD_CAT_ID   = 67804
ELEMENT_SET_NO = 999
REV_AT_EPOCH   = 429
BSTAR          = .11066525E-2
MEAN_MOTION_DOT = .168573E-2
MEAN_MOTION_DDOT = 0

CCSDS_OMM_VERS = 2.0
CREATION_DATE  = 
ORIGINATOR     = 

OBJECT_NAME    = STARLINK-36782
OBJECT_ID      = 2026-032J
CENTER_NAME    = EARTH
REF_FRAME      = TEME
TIME_SYSTEM    = UTC
MEAN_ELEMENT_THEORY = SGP/SGP4

EPOCH          = 2026-03-06T14:42:29.709504
MEAN_MOTION    = 15.80485206
ECCENTRICITY   = .00014119
INCLINATION    = 97.2831
RA_OF_ASC_NODE = 252.0180
ARG_OF_PERICENTER = 93.0699
MEAN_ANOMALY   = 267.0731

EPHEMERIS_TYPE = 0
CLASSIFICATION_TYPE = U
NORAD_CAT_ID   = 67805
ELEMENT_SET_NO = 999
REV_AT_EPOCH   = 430
BSTAR          = -.22257926E-2
MEAN_MOTION_DOT = -.401373E-2
MEAN_MOTION_DDOT = 0

CCSDS_OMM_VERS = 2.0
CREATION_DATE  = 
ORIGINATOR     = 

OBJECT_NAME    = STARLINK-36389
OBJECT_ID      = 2026-032K
CENTER_NAME    = EARTH
REF_FRAME      = TEME
TIME_SYSTEM    = UTC
MEAN_ELEMENT_THEORY = SGP/SGP4

EPOCH          = 2026-03-06T20:00:00.999360
MEAN_MOTION    = 15.75085799
ECCENTRICITY   = .0001021
INCLINATION    = 97.2843
RA_OF_ASC_NODE = 252.2203
ARG_OF_PERICENTER = 87.4857
MEAN_ANOMALY   = 16.3838

EPHEMERIS_TYPE = 0
CLASSIFICATION_TYPE = U
NORAD_CAT_ID   = 67806
ELEMENT_SET_NO = 999
REV_AT_EPOCH   = 432
BSTAR          = .1599E-2
MEAN_MOTION_DOT = .244223E-2
MEAN_MOTION_DDOT = 0

CCSDS_OMM_VERS = 2.0
CREATION_DATE  = 
ORIGINATOR     = 

OBJECT_NAME    = STARLINK-36382
OBJECT_ID      = 2026-032L
CENTER_NAME    = EARTH
REF_FRAME      = TEME
TIME_SYSTEM    = UTC
MEAN_ELEMENT_THEORY = SGP/SGP4

EPOCH          = 2026-03-06T20:00:00.999360
MEAN_MOTION    = 15.75143059
ECCENTRICITY   = .0001494
INCLINATION    = 97.2846
RA_OF_ASC_NODE = 252.2261
ARG_OF_PERICENTER = 76.8536
MEAN_ANOMALY   = 39.1344

EPHEMERIS_TYPE = 0
CLASSIFICATION_TYPE = U
NORAD_CAT_ID   = 67807
ELEMENT_SET_NO = 999
REV_AT_EPOCH   = 426
BSTAR          = .54728E-3
MEAN_MOTION_DOT = .82123E-3
MEAN_MOTION_DDOT = 0

CCSDS_OMM_VERS = 2.0
CREATION_DATE  = 
ORIGINATOR     = 

OBJECT_NAME    = STARLINK-36811
OBJECT_ID      = 2026-032M
CENTER_NAME    = EARTH
REF_FRAME      = TEME
TIME_SYSTEM    = UTC
MEAN_ELEMENT_THEORY = SGP/SGP4

EPOCH          = 2026-03-06T20:00:00.999360
MEAN_MOTION    = 15.75158110
ECCENTRICITY   = .000163
INCLINATION    = 97.2850
RA_OF_ASC_NODE = 252.2496
ARG_OF_PERICENTER = 89.0941
MEAN_ANOMALY   = 82.8757

EPHEMERIS_TYPE = 0
CLASSIFICATION_TYPE = U
NORAD_CAT_ID   = 67808
ELEMENT_SET_NO = 999
REV_AT_EPOCH   = 432
BSTAR          = .35235E-3
MEAN_MOTION_DOT = .52679E-3
MEAN_MOTION_DDOT = 0

CCSDS_OMM_VERS = 2.0
CREATION_DATE  = 
ORIGINATOR     = 

OBJECT_NAME    = STARLINK-36795
OBJECT_ID      = 2026-032N
CENTER_NAME    = EARTH
REF_FRAME      = TEME
TIME_SYSTEM    = UTC
MEAN_ELEMENT_THEORY = SGP/SGP4

EPOCH          = 2026-03-06T18:09:16.308000
MEAN_MOTION    = 15.75261439
ECCENTRICITY   = .0001364
INCLINATION    = 97.2844
RA_OF_ASC_NODE = 252.1282
ARG_OF_PERICENTER = 77.8109
MEAN_ANOMALY   = 282.3309

EPHEMERIS_TYPE = 0
CLASSIFICATION_TYPE = U
NORAD_CAT_ID   = 67809
ELEMENT_SET_NO = 999
REV_AT_EPOCH   = 432
BSTAR          = .16435E-2
MEAN_MOTION_DOT = .253202E-2
MEAN_MOTION_DDOT = 0

CCSDS_OMM_VERS = 2.0
CREATION_DATE  = 
ORIGINATOR     = 

OBJECT_NAME    = STARLINK-36807
OBJECT_ID      = 2026-032P
CENTER_NAME    = EARTH
REF_FRAME      = TEME
TIME_SYSTEM    = UTC
MEAN_ELEMENT_THEORY = SGP/SGP4

EPOCH          = 2026-03-06T20:00:00.999360
MEAN_MOTION    = 15.75133017
ECCENTRICITY   = .0001673
INCLINATION    = 97.2849
RA_OF_ASC_NODE = 252.2466
ARG_OF_PERICENTER = 77.9023
MEAN_ANOMALY   = 88.0918

EPHEMERIS_TYPE = 0
CLASSIFICATION_TYPE = U
NORAD_CAT_ID   = 67810
ELEMENT_SET_NO = 999
REV_AT_EPOCH   = 432
BSTAR          = .56603E-3
MEAN_MOTION_DOT = .84933E-3
MEAN_MOTION_DDOT = 0

CCSDS_OMM_VERS = 2.0
CREATION_DATE  = 
ORIGINATOR     = 

OBJECT_NAME    = STARLINK-36733
OBJECT_ID      = 2026-032Q
CENTER_NAME    = EARTH
REF_FRAME      = TEME
TIME_SYSTEM    = UTC
MEAN_ELEMENT_THEORY = SGP/SGP4

EPOCH          = 2026-03-06T14:32:55.300704
MEAN_MOTION    = 15.80863460
ECCENTRICITY   = .00013779
INCLINATION    = 97.2822
RA_OF_ASC_NODE = 252.0256
ARG_OF_PERICENTER = 95.1087
MEAN_ANOMALY   = 265.0339

EPHEMERIS_TYPE = 0
CLASSIFICATION_TYPE = U
NORAD_CAT_ID   = 67811
ELEMENT_SET_NO = 999
REV_AT_EPOCH   = 430
BSTAR          = .81353634E-3
MEAN_MOTION_DOT = .158903E-2
MEAN_MOTION_DDOT = 0

CCSDS_OMM_VERS = 2.0
CREATION_DATE  = 
ORIGINATOR     = 

OBJECT_NAME    = STARLINK-36377
OBJECT_ID      = 2026-032R
CENTER_NAME    = EARTH
REF_FRAME      = TEME
TIME_SYSTEM    = UTC
MEAN_ELEMENT_THEORY = SGP/SGP4

EPOCH          = 2026-03-06T19:02:09.603744
MEAN_MOTION    = 15.79566509
ECCENTRICITY   = .0000272
INCLINATION    = 97.2826
RA_OF_ASC_NODE = 252.2306
ARG_OF_PERICENTER = 81.5361
MEAN_ANOMALY   = 278.5937

EPHEMERIS_TYPE = 0
CLASSIFICATION_TYPE = U
NORAD_CAT_ID   = 67812
ELEMENT_SET_NO = 999
REV_AT_EPOCH   = 433
BSTAR          = -.32148E-2
MEAN_MOTION_DOT = -.54667E-2
MEAN_MOTION_DDOT = 0

CCSDS_OMM_VERS = 2.0
CREATION_DATE  = 
ORIGINATOR     = 

OBJECT_NAME    = STARLINK-36732
OBJECT_ID      = 2026-032S
CENTER_NAME    = EARTH
REF_FRAME      = TEME
TIME_SYSTEM    = UTC
MEAN_ELEMENT_THEORY = SGP/SGP4

EPOCH          = 2026-03-06T20:00:00.999360
MEAN_MOTION    = 15.75158552
ECCENTRICITY   = .000099
INCLINATION    = 97.2844
RA_OF_ASC_NODE = 252.2612
ARG_OF_PERICENTER = 59.9020
MEAN_ANOMALY   = 146.0217

EPHEMERIS_TYPE = 0
CLASSIFICATION_TYPE = U
NORAD_CAT_ID   = 67813
ELEMENT_SET_NO = 999
REV_AT_EPOCH   = 432
BSTAR          = .55142E-3
MEAN_MOTION_DOT = .82806E-3
MEAN_MOTION_DDOT = 0

